[{"OBJECT_NAME":"STARLINK-5863","OBJECT_ID":"2023-037J","EPOCH":"2026-03-09T22:17:42.236448","MEAN_MOTION":14.98333801,"ECCENTRICITY":0.00023449,"INCLINATION":69.9995,"RA_OF_ASC_NODE":303.8279,"ARG_OF_PERICENTER":267.7645,"MEAN_ANOMALY":92.3246,"EPHEMERIS_TYPE":0,"CLASSIFICATION_TYPE":"U","NORAD_CAT_ID":55922,"ELEMENT_SET_NO":999,"REV_AT_EPOCH":16352,"BSTAR":-8.3205167e-5,"MEAN_MOTION_DOT":-1.086e-5,"MEAN_MOTION_DDOT":0},{"OBJECT_NAME":"ICEYE-X39","OBJECT_ID":"2024-149CG","EPOCH":"2026-03-09T17:17:30.183072","MEAN_MOTION":14.99225125,"ECCENTRICITY":0.0005274,"INCLINATION":97.6853,"RA_OF_ASC_NODE":147.0953,"ARG_OF_PERICENTER":52.5538,"MEAN_ANOMALY":307.6164,"EPHEMERIS_TYPE":0,"CLASSIFICATION_TYPE":"U","NORAD_CAT_ID":60546,"ELEMENT_SET_NO":999,"REV_AT_EPOCH":8521,"BSTAR":0.00029320082,"MEAN_MOTION_DOT":3.515e-5,"MEAN_MOTION_DDOT":0}]
